#dP2021  7  4  0  0  0.00000000      97 __u+U IGS14 FIT  IAC
## 2165      0.00000000   900.00000000 59399 0.0000000000000
+  124   C01C02C03C04C05C06C07C08C09C10C11C12C13C14C16C19C20
+        C21C22C23C24C25C26C27C28C29C30C32C33C34C35C36C37C38
+        C39C40C41C42C43C44C45C46C60E01E02E03E04E05E07E08E09
+        E11E12E13E14E15E18E19E21E24E25E26E27E30E31E33E36G01
+        G02G03G04G05G06G07G08G09G10G11G12G13G14G15G16G17G18
+        G19G20G21G22G23G24G25G26G27G28G29G30G31G32J01J02J03
+        J07R01R02R03R04R05R07R08R09R11R12R13R14R15R16R17R18
+        R19R20R21R22R24  0  0  0  0  0  0  0  0  0  0  0  0
++        13 13 13 13  0  9  9 11  8  9  8  8  9  8  9  7  7
++         7  7  7  7  7  7  7  7  7  7  7  7  7  7  7  7  8
++         8  8  7  8  8  7  7  7 13  4  4  4  4  4  5  4  4
++         4  4  4  4  4  4  4  4  4  4  5  4  4  4  5  4  3
++         3  3  3  3  3  3  3  3  3  4  3  3  3  3  4  4  3
++         4  3  3  3  3  3  3  3  3  3  3  3  3  3  8  8  8
++        14  7  5  5  5  5  6  6  5  7  5  7  5  6  7  5  5
++         7  7  6  8  6  0  0  0  0  0  0  0  0  0  0  0  0
%c M  cc GPS ccc cccc cccc cccc cccc ccccc ccccc ccccc ccccc
%c cc cc ccc ccc cccc cccc cccc cccc ccccc ccccc ccccc ccccc
%f  1.2500000  1.025000000  0.00000000000  0.000000000000000
%f  0.0000000  0.000000000  0.00000000000  0.000000000000000
%i    0    0    0    0      0      0      0      0         0
%i    0    0    0    0      0      0      0      0         0
/* INFORMATION & ANALYSIS CENTER (IAC)            FINAL DATA
/* S/V CLOCKS ARE ALIGNED TO GNSS TIME                      
/* G:C1WC2W R:C1PC2P E:C1XC5X C:C2IC6I J:C1CC2S             
/* PCV:IGS14_2163 OL/AL:FES2004  NONE     YN ORB:CoN CLK:CoN
*  2021 07 04 22 15  0.00000000
PC01 -34318.813448  24529.401080    133.498977   -306.006766
PC02   4408.472721  41890.377611  -1444.295122    536.835250
PC03 -14741.702353  39480.904881  -1111.563115   -106.118296
PC04 -39608.191084  14480.005655     82.820361   -213.578367
PC05      0.000000      0.000000      0.000000 999999.999999
PC06 -14583.913919  38333.634193  -8108.629851    583.877824
PC07  -8857.254145  26149.226425  32224.878789    156.684867
PC08 -23370.632078  23935.312427 -25773.817574   -900.507003
PC09  -6088.319571  40994.525580   6666.332638    398.558355
PC10   4716.081661  31656.229176  27891.470020    -22.309422
PC11  -5793.403386 -20435.906238  18129.370090    438.539231
PC12   6725.617972 -26946.487434   2614.420494    822.108675
PC13 -10761.387880  25504.700503 -31797.026931    324.546999
PC14 -16549.203607 -21985.834218   4458.106033    836.980968
PC16 -13028.126405  39422.711624  -6520.589174   -937.986151
PC19  21303.032922  17303.378370   5148.252402    896.956430
PC20  10694.217058  22999.741326 -11658.983073   -854.816827
PC21   6980.663205 -15152.464596  22384.328449   -935.118920
PC22  19919.711592   1453.877687  19507.432875   -948.557948
PC23 -27354.851760   5389.744919  -1127.679302   -958.733352
PC24  -1603.599752 -16250.945825 -22628.446380   -923.536757
PC25 -21411.381433  -6771.970915 -16578.963721   -890.874741
PC26  16825.047969 -15804.557573 -15662.758017    883.362990
PC27 -12395.845024  24137.487990   6462.378256    559.054291
PC28 -17329.585545   8411.104852  20191.736140    -54.489188
PC29  12542.027637  11762.587567 -21990.407245    415.070366
PC30    359.145451  25849.103939 -10493.966940    472.947650
PC32  -6843.665831  15222.186489 -22350.557721   -924.129114
PC33 -21345.058625 -17237.146179  -5027.843492   -940.302657
PC34   -832.847129 -25590.688340  11110.048711   -635.480097
PC35  17098.313272  -8606.921090 -20326.438051   -202.427121
PC36  20951.545867   7531.533079  16857.561426   -730.670584
PC37 -18022.932819  15145.958194  15017.235088   -867.800217
PC38 -21171.571602  26056.157997 -25583.423589    159.561036
PC39  -9794.836323  40510.025031  -5796.075626     32.179657
PC40    -73.585422  27515.088441  32026.681390    177.378928
PC41 -20061.473459  -1689.447053 -19273.877791   -955.120032
PC42  -9957.503124 -22956.583713  12375.483576   -916.896342
PC43 -12304.004712 -12426.873547  21739.785998   -806.539946
PC44  11741.118927 -24443.930822  -6668.434485    272.945410
PC45  27328.198448  -5519.659137   1019.554732    484.810954
PC46   2776.454612  15903.986155  22774.305053    193.947295
PC60   7309.545221  41539.334403    -29.572853 999999.999999
PE01 -28934.946660  -4693.735425   4110.878456  -1143.232104
PE02  28926.794645   4606.987021  -4231.325176    230.667019
PE03  18185.026411   5146.701839  22789.119896   -449.132025
PE04 -11549.358528  16230.811171 -21884.594568   -806.437417
PE05  14233.883782  23821.900453  10315.328935   -267.752226
PE07  -2018.399624 -28409.168591   8049.599811   -557.777798
PE08  11170.983565 -16551.654028  21851.266051   5975.501163
PE09   2352.901523  28439.843412  -7889.840853   5611.393025
PE11  -8178.445626  23522.719857 -16003.327641   5764.020434
PE12 -21678.762367  19967.410326   2636.633315   5127.280957
PE13   8552.331500 -23608.607908  15674.483964    418.600706
PE14 -14959.160758   3030.990672  18238.323659  -1489.015439
PE15  21605.700294 -20065.402084  -2620.916401    805.232302
PE18  20533.813036   1956.784635 -24841.776146  -1631.570472
PE19 -18159.643083  -7738.735359 -22046.327876    318.748335
PE21 -21609.901029 -15015.311137 -13548.843212   -674.403883
PE24    337.140040  17036.841154  24193.528956   -990.380712
PE25  21446.976546  15099.602201  13730.554323   -538.980885
PE26 -10318.087628 -12695.958332  24664.249635   1616.907384
PE27  -1464.215317 -17148.986632 -24075.630643    -68.587729
PE30  20306.412509  -8516.158399 -19782.235849   2810.295336
PE31 -19395.968499   9197.627159  20389.366198   -482.904436
PE33 -21908.213810   4713.999578  19332.541201   -468.163911
PE36   9515.528054  13242.468589 -24706.807226   -229.977470
PG01  -8689.605892  19123.649291 -16309.813062    638.173931
PG02  21991.637838 -14048.728387  -4453.200106   -617.268562
PG03    169.932463  16108.364620 -21227.004959   -210.934829
PG04  -1199.119291  26224.092896  -3812.213457   -201.635189
PG05  13553.116011  -9939.060981  20450.663139    -46.928630
PG06  22021.991137  -3779.536855 -14350.803777     35.536951
PG07   6538.765785  14311.825911  21721.672003    194.638196
PG08  -7086.231163  21532.054109  13574.132972    -27.583508
PG09   7594.407556  24456.714978   6944.132482   -354.146647
PG10 -23923.348386 -11838.279081   1096.699336   -155.535464
PG11  23812.965198 -10721.258101  -4857.211429      6.890772
PG12   1850.663236 -15750.747362 -21579.110943    -64.112811
PG13  12902.531039 -14625.521788  17830.466101    153.438623
PG14  23403.841814  12593.499442    608.027573     55.023795
PG15   4912.606104 -22462.315921  12618.624247   -137.806868
PG16 -18936.509657   3402.617082  18261.816932   -351.861416
PG17  12503.989403  14379.011244 -18073.230438    468.745375
PG18  -8716.949015 -12262.709163  21875.016059    343.096212
PG19  14630.288900   4819.618178 -21936.617902     22.042284
PG20  19963.137960  -6382.133444  16089.992899    520.509928
PG21 -14974.413968  19728.135221  -8158.316651    129.246214
PG22  -8786.279914  13343.497157 -21015.149442   -571.789285
PG23 -17538.537019 -16288.797940  11550.283409     88.907170
PG24  11711.762858 -20684.746963 -11680.533682    161.308672
PG25 -10877.705615 -17895.713875 -16753.995580    167.729689
PG26 -24679.869953  -2375.812412   9828.249120    106.607765
PG27 -12460.563972  11921.098495  19912.192933   -157.770770
PG28  23865.616594  10049.202135  -4887.883427    543.465137
PG29  -4472.186354 -25422.393881   6077.579079   -374.943486
PG30  17757.737011   5142.969061  19218.301819   -446.954600
PG31 -23223.976532   4895.343036 -12469.298087   -126.808689
PG32 -14657.206071 -10938.428236 -19205.020302     15.707907
PJ01 -20746.165854  21090.103094 -25475.800050   -408.791844
PJ02 -29739.483143  21858.323112  25257.104902     -0.592602
PJ03 -29470.058027  28102.185450  15729.569152    -10.048515
PJ07 -25395.673999  33658.888110    -29.211972      0.012338
PR01  13250.695651    924.179756  21784.377183     81.863442
PR02   -114.936820 -17027.804305  19059.837471    484.829437
PR03 -11700.939841 -22254.683040   4500.868491     38.880288
PR04 -16450.297597 -14987.226734 -12442.213575     94.299655
PR05 -12086.997796    557.129823 -22444.606429     74.749086
PR07  12049.565267  22143.813719  -3702.631279    -42.142482
PR08  16548.121434  14803.762738  12597.655145    -59.806183
PR09 -10586.250825  10779.020498  20550.172238      1.260507
PR11  22740.742171   3755.317279  10959.348565    -18.402115
PR12  24017.993049  -4642.404907  -7172.810884    242.624185
PR13  11430.255273 -10414.427852 -20299.203023    -57.236500
PR14  -8680.504917 -10060.654712 -21753.735603     66.090191
PR15 -22964.641366  -3860.654294 -10381.032724    102.874001
PR16 -23527.090105   5743.982521   8189.379629    -17.385813
PR17   1223.698801 -18979.069263  16977.758250    438.284428
PR18  -9146.999871  -5062.746402  23273.963631     82.303074
PR19 -14974.900978  10486.818215  17784.026382   -150.287000
PR20 -12388.373235  22270.462717   -402.276368    -51.959903
PR21   -547.127034  18239.408326 -17845.482642   -221.452742
PR22   9691.423372   3934.141124 -23288.494182   -121.022312
PR24  11692.416771 -22633.232198   1140.598378     49.150158
EOF
